     2.11           N: GPS NAV DATA                         RINEX VERSION / TYPE
teqc  2017Sep15     UNAVCO Archive Ops  20171007 07:49:15UTCPGM / RUN BY / DATE
Solaris x86 5.10|AMD64|cc SC5.8 -xarch=amd64|=+|=+          COMMENT
    1.0245D-08  7.4506D-09 -5.9605D-08 -5.9605D-08          ION ALPHA
    8.8064D+04  0.0000D+00 -1.9661D+05 -6.5536D+04          ION BETA
    9.313225746155D-10 1.776356839400D-15    61440     1970 DELTA-UTC: A0,A1,T,W
                                                            END OF HEADER
30 17 10  6 12  0  0.0 1.363880001009D-04-2.273736754432D-12 0.000000000000D+00
    5.200000000000D+01 3.371875000000D+01 5.298077829065D-09 1.325210528338D-01
    1.819804310799D-06 3.052870742977D-03 1.726672053337D-06 5.153615257263D+03
    4.752000000000D+05 9.126961231232D-08-1.580436409806D+00-2.793967723846D-08
    9.462655859084D-01 3.376562500000D+02-3.052377128491D+00-8.837868132682D-09
    2.614394614315D-10 1.000000000000D+00 1.969000000000D+03 0.000000000000D+00
    2.000000000000D+00 0.000000000000D+00 3.725290298462D-09 5.200000000000D+01
    4.680000000000D+05 4.000000000000D+00
18 17 10  6 12  0  0.0 6.308816373348D-04 5.684341886081D-13 0.000000000000D+00
    4.500000000000D+01-8.168750000000D+01 5.390938839956D-09-1.818502205150D+00
   -4.149973392487D-06 1.813801145181D-02 7.618218660355D-06 5.153630764008D+03
    4.752000000000D+05 4.414469003677D-07 2.501864114671D+00 1.545995473862D-07
    9.261263578173D-01 2.120000000000D+02-1.779808074619D+00-8.376777497835D-09
   -7.146726261264D-10 1.000000000000D+00 1.969000000000D+03 0.000000000000D+00
    2.000000000000D+00 0.000000000000D+00-1.117587089539D-08 4.500000000000D+01
    4.682100000000D+05 4.000000000000D+00
 1 17 10  6 12  0  0.0-3.540888428688D-06-1.364242052659D-12 0.000000000000D+00
    1.400000000000D+01 3.806250000000D+01 5.009137222100D-09 7.783651701022D-01
    2.134591341019D-06 7.067463360727D-03 3.701075911522D-06 5.153672296524D+03
    4.752000000000D+05 4.284083843231D-08 1.509329073409D+00 8.195638656616D-08
    9.682862904963D-01 3.097187500000D+02 6.295455567679D-01-8.565713939225D-09
    1.007184810433D-10 1.000000000000D+00 1.969000000000D+03 0.000000000000D+00
    2.000000000000D+00 0.000000000000D+00 5.587935447693D-09 1.400000000000D+01
    4.686000000000D+05 4.000000000000D+00
19 17 10  6 12  0  0.0-4.826257936656D-04 2.046363078989D-12 0.000000000000D+00
    1.210000000000D+02 5.237500000000D+01 4.033025134542D-09-3.203584175854D-01
    2.805143594742D-06 9.971226216294D-03 1.303479075432D-05 5.153686410904D+03
    4.752000000000D+05-3.911554813385D-08 5.524570505451D-01 1.527369022369D-07
    9.785874515582D-01 1.415000000000D+02 1.078064916885D+00-7.907472235101D-09
    5.118070331030D-10 1.000000000000D+00 1.969000000000D+03 0.000000000000D+00
    2.000000000000D+00 0.000000000000D+00-1.536682248116D-08 1.210000000000D+02
    4.690800000000D+05 4.000000000000D+00
28 17 10  6 11 59 44.0 6.517427973449D-04 3.296918293927D-12 0.000000000000D+00
    8.000000000000D+00-1.031875000000D+02 3.846231639558D-09-2.396555068744D+00
   -5.243346095085D-06 1.989262015559D-02 9.000301361084D-06 5.153659193039D+03
    4.751840000000D+05 1.955777406693D-07-5.064641115774D-01 1.937150955200D-07
    9.878295857416D-01 2.107187500000D+02-1.562374415668D+00-7.487811897421D-09
   -3.135844906242D-10 1.000000000000D+00 1.969000000000D+03 0.000000000000D+00
    2.000000000000D+00 0.000000000000D+00-1.117587089539D-08 8.000000000000D+00
    4.692000000000D+05 4.000000000000D+00
24 17 10  6 12  0  0.0-4.054140299559D-05-4.547473508865D-13 0.000000000000D+00
    2.200000000000D+01 6.165625000000D+01 5.347008438650D-09 1.079256596786D+00
    3.118067979813D-06 6.008817465045D-03 2.432614564896D-06 5.153671045303D+03
    4.752000000000D+05-4.842877388000D-08-1.673223027655D+00 3.725290298462D-08
    9.436553377526D-01 3.227187500000D+02 4.688422297779D-01-8.873941063836D-09
    2.707255625206D-10 1.000000000000D+00 1.969000000000D+03 0.000000000000D+00
    2.000000000000D+00 0.000000000000D+00 2.793967723846D-09 2.200000000000D+01
    4.692900000000D+05 4.000000000000D+00
10 17 10  6 12  0  0.0 8.229445666075D-05 8.981260180008D-12 0.000000000000D+00
    6.000000000000D+01-7.987500000000D+01 4.573761944115D-09-1.225167860222D+00
   -4.179775714874D-06 2.822031150572D-03 8.830800652504D-06 5.153669618607D+03
    4.752000000000D+05 5.587935447693D-08 2.548713935960D+00-1.713633537292D-07
    9.605168861837D-01 2.126875000000D+02-2.868074232335D+00-8.096408676491D-09
   -7.186013612025D-10 1.000000000000D+00 1.969000000000D+03 0.000000000000D+00
    2.000000000000D+00 0.000000000000D+00 1.862645149231D-09 6.000000000000D+01
    4.695900000000D+05 4.000000000000D+00
12 17 10  6 12  0  0.0 3.702263347805D-04-1.364242052659D-12 0.000000000000D+00
    1.400000000000D+01-1.116875000000D+02 4.074455431709D-09-4.586806003795D-01
   -5.671754479408D-06 6.535070133395D-03 9.214505553246D-06 5.153709894180D+03
    4.752000000000D+05 5.774199962616D-08-5.297819929408D-01 9.499490261078D-08
    9.885292394793D-01 2.216250000000D+02 9.114769419418D-01-8.010690820284D-09
   -4.485901141503D-10 1.000000000000D+00 1.969000000000D+03 0.000000000000D+00
    2.000000000000D+00 0.000000000000D+00-1.257285475731D-08 1.400000000000D+01
    4.734600000000D+05 4.000000000000D+00
11 17 10  6 14  0  0.0-7.197894155979D-04-2.160049916711D-12 0.000000000000D+00
    1.100000000000D+01 7.237500000000D+01 6.316334529258D-09 1.216810336509D+00
    3.518536686897D-06 1.706150267273D-02 6.712973117828D-06 5.153728302002D+03
    4.824000000000D+05-1.844018697739D-07 1.097726252065D+00-4.395842552185D-07
    9.022199020861D-01 2.190625000000D+02 1.703733987976D+00-9.095378859037D-09
    5.975248893100D-10 1.000000000000D+00 1.969000000000D+03 0.000000000000D+00
    2.000000000000D+00 0.000000000000D+00-1.210719347000D-08 1.100000000000D+01
    4.752600000000D+05 4.000000000000D+00
12 17 10  6 14  0  0.0 3.702165558934D-04-1.364242052659D-12 0.000000000000D+00
    1.600000000000D+01-1.078750000000D+02 3.934092442170D-09 5.914713904375D-01
   -5.843117833138D-06 6.535625783727D-03 9.117648005486D-06 5.153710950851D+03
    4.824000000000D+05-4.284083843231D-08-5.298391359839D-01 9.499490261078D-08
    9.885259376732D-01 2.203750000000D+02 9.114794830305D-01-7.964260314838D-09
   -5.153786104450D-10 1.000000000000D+00 1.969000000000D+03 0.000000000000D+00
    2.000000000000D+00 0.000000000000D+00-1.257285475731D-08 1.600000000000D+01
    4.752000000000D+05 4.000000000000D+00
13 17 10  6 14  0  0.0-9.241886436939D-05-4.547473508865D-13 0.000000000000D+00
    1.150000000000D+02 9.740625000000D+01 3.949450224740D-09 2.453334289963D+00
    5.077570676804D-06 3.525530453771D-03 1.215934753418D-05 5.153667148590D+03
    4.824000000000D+05 3.539025783539D-08-2.567928280909D+00 1.303851604462D-07
    9.695097391264D-01 1.489062500000D+02 1.727775962587D+00-7.741036730966D-09
    3.082271246112D-10 1.000000000000D+00 1.969000000000D+03 0.000000000000D+00
    2.000000000000D+00 0.000000000000D+00-1.117587089539D-08 1.150000000000D+02
    4.752000000000D+05 4.000000000000D+00
15 17 10  6 14  0  0.0-3.564166836441D-04-3.410605131648D-13 0.000000000000D+00
    1.400000000000D+01 7.725000000000D+01 4.755198073087D-09-3.090571568631D+00
    3.855675458908D-06 9.689241414890D-03 1.374818384647D-05 5.153638650894D+03
    4.824000000000D+05-7.450580596924D-09-2.760954553182D+00-8.195638656616D-08
    9.292684966543D-01 9.653125000000D+01 6.121800257439D-01-8.048192382375D-09
    1.203621564241D-10 1.000000000000D+00 1.969000000000D+03 0.000000000000D+00
    2.000000000000D+00 0.000000000000D+00-1.071020960808D-08 1.400000000000D+01
    4.752300000000D+05 4.000000000000D+00
17 17 10  6 14  0  0.0-1.526083797216D-04 2.273736754432D-12 0.000000000000D+00
    5.800000000000D+01 4.168750000000D+01 3.920163290536D-09-2.251689717126D+00
    2.127140760422D-06 1.191566803027D-02 1.249834895134D-05 5.153696418762D+03
    4.824000000000D+05 1.452863216400D-07 5.049069742593D-01 1.490116119385D-08
    9.812760126447D-01 1.460625000000D+02-1.841893453318D+00-7.468168222040D-09
    5.135928217740D-10 1.000000000000D+00 1.969000000000D+03 0.000000000000D+00
    2.000000000000D+00 0.000000000000D+00-1.117587089539D-08 5.800000000000D+01
    4.752000000000D+05 4.000000000000D+00
19 17 10  6 14  0  0.0-4.826118238270D-04 2.046363078989D-12 0.000000000000D+00
    1.220000000000D+02 4.153125000000D+01 4.058383333670D-09 7.298314276999D-01
    2.225860953331D-06 9.969170321710D-03 1.246295869350D-05 5.153682491302D+03
    4.824000000000D+05-1.583248376846D-07 5.524009330076D-01 3.911554813385D-08
    9.785908060293D-01 1.518125000000D+02 1.078045936986D+00-7.865327622466D-09
    3.860875106660D-10 1.000000000000D+00 1.969000000000D+03 0.000000000000D+00
    2.000000000000D+00 0.000000000000D+00-1.536682248116D-08 1.220000000000D+02
    4.752000000000D+05 4.000000000000D+00
24 17 10  6 14  0  0.0-4.054466262460D-05-4.547473508865D-13 0.000000000000D+00
    1.560000000000D+02 6.465625000000D+01 5.331293498345D-09 2.129556222370D+00
    3.304332494736D-06 6.008709664457D-03 2.212822437286D-06 5.153669801712D+03
    4.824000000000D+05-1.117587089539D-07-1.673287082986D+00-2.607703208923D-08
    9.436574853163D-01 3.269375000000D+02 4.687317926292D-01-8.827153400656D-09
    3.075128091428D-10 1.000000000000D+00 1.969000000000D+03 0.000000000000D+00
    2.000000000000D+00 0.000000000000D+00 2.793967723846D-09 1.560000000000D+02
    4.752000000000D+05 4.000000000000D+00
